JILIN-1 GAOFEN 03D54    
1 54254U 22155D   24277.22701241  .00038108  00000+0  16045-2 0  9993
2 54254  97.5706  28.4110 0010263  76.0719 284.1658 15.23211559104096
EOS-6 (OCEANSAT-3)      
1 54361U 22158A   24277.23580019  .00002408  00000+0  67429-3 0  9991
2 54361  98.3542  12.8150 0000762  81.9693 278.1586 14.46975727 97892
ASTROCAST-0304          
1 54367U 22158G   24277.20916286  .00040300  00000+0  10222-2 0  9994
2 54367  97.4430  21.3543 0007991  54.2142 305.9846 15.39546648103343
ASTROCAST-0303          
1 54368U 22158H   24277.17361086  .00168253  00000+0  28186-2 0  9999
2 54368  97.4426  22.4280 0007397 131.5769 228.6118 15.51218637103401
ASTROCAST-0302          
1 54369U 22158J   24277.17705677  .00041320  00000+0  10465-2 0  9994
2 54369  97.4463  21.6389 0006380  73.7848 286.4100 15.39599275103353
ASTROCAST-0301          
1 54370U 22158K   24277.22509745  .00039759  00000+0  10085-2 0  9991
2 54370  97.4489  21.8487 0005817  72.2226 287.9653 15.39564788103363
2022-167A               
1 54682U 22167A   24277.18869120  .00461510  00000+0  31161-2 0  9990
2 54682  97.5956  70.3909 0003747 265.5451  94.5384 15.73754573101232
CAS-5A (FO-118)         
1 54684U 22167C   24277.17245702  .00095461  00000+0  22526-2 0  9998
2 54684  97.6155  65.3900 0007245 131.3914 228.7956 15.41495771100863
DONGPO 09               
1 54685U 22167D   24277.16576027  .00028268  00000+0  13568-2 0  9992
2 54685  97.6299  60.1443 0003616 123.3947 236.7633 15.18823051100482
DONGPO 08               
1 54686U 22167E   24277.16941173  .00027452  00000+0  13549-2 0  9994
2 54686  97.6246  59.5646 0011153 169.8260 190.3201 15.17808667100470
2022-167F               
1 54687U 22167F   24277.18554732  .00045956  00000+0  19269-2 0  9992
2 54687  97.6071  59.5789 0007673 141.7639 218.4142 15.23327062100520
DONGPO 10               
1 54689U 22167H   24277.20928353  .00027453  00000+0  13497-2 0  9990
2 54689  97.6329  60.2994 0011171 135.3540 224.8594 15.17944340100487
2022-167M               
1 54693U 22167M   24277.12639153  .05564328  25401-5  24495-2 0  9993
2 54693  97.5777  73.8784 0008417 291.7637  68.2756 16.22361747101389
JILIN-1 GAOFEN 03D48    
1 54695U 22167P   24277.16170665  .00027976  00000+0  13825-2 0  9992
2 54695  97.6261  59.8266 0011988 137.2039 223.0130 15.17751868100483
STAR VIBE               
1 55009U 23001A   24277.15780838  .00035153  00000+0  14922-2 0  9993
2 55009  97.4114 333.3147 0009021 166.2531 193.8953 15.22963368 96926
BRO-8                   
1 55011U 23001C   24277.12561181  .00022613  00000+0  10032-2 0  9996
2 55011  97.4183 333.5650 0010254 169.8311 190.3135 15.21543034 96906
CONNECTA T1.2           
1 55012U 23001D   24276.57733986  .00024683  00000+0  96827-3 0  9995
2 55012  97.4202 334.7014 0010826 161.0400 199.1243 15.25678888 96923
BIRKELAND               
1 55015U 23001G   24277.17492225  .00019792  00000+0  79389-3 0  9992
2 55015  97.4202 335.6711 0009833 156.1776 203.9919 15.24988379 97043
ION SCV-008             
1 55051U 23001AU  24276.67011948  .00018655  00000+0  94195-3 0  9994
2 55051  97.6060 355.6246 0019605  35.0698 325.1821 15.16977565 96569
ION SCV-007             
1 55060U 23001BD  24276.64445108  .00003319  00000+0  48542-3 0  9996
2 55060  97.9873 338.2913 0012664 178.2114 181.9143 14.76300682 94358
TAUSAT-2                
1 55073U 23001BS  24277.15754573  .00127101  00000+0  28940-2 0  9991
2 55073  97.4112 340.8803 0010963 122.2575 237.9736 15.42409280 97418
FLOCK 4Y-23             
1 55080U 23001BZ  24277.14253910  .00065383  00000+0  19083-2 0  9998
2 55080  97.4149 339.4781 0012442 140.8571 219.3574 15.35018805 97326
HUYGENS                 
1 55093U 23001CN  24277.17499051  .00016889  00000+0  67719-3 0  9990
2 55093  97.4143 335.5501 0014490 140.3909 219.8390 15.24982356 97067
BDSAT-2                 
1 55098U 23001CT  24277.13859797  .00150640  00000+0  30601-2 0  9991
2 55098  97.4132 341.7859 0009973 134.2611 225.9458 15.45714094 97458
SHARJAHSAT-1            
1 55104U 23001CZ  24277.17689195  .00027118  00000+0  11000-2 0  9991
2 55104  97.4129 334.0536 0010358 167.5123 192.6373 15.24543045 96969
2023-003A               
1 55133U 23003A   24277.20334782  .00043663  00000+0  14323-2 0  9992
2 55133  97.2129 347.6546 0004176 193.2974 166.8158 15.31469744 96179
2023-007P               
1 55261U 23007P   24276.51337410  .00969551  49768-3  14844-2 0  9991
2 55261  97.2830   1.1201 0006837 243.3267 116.7314 16.04449019 96631
EOS-7                   
1 55562U 23019A   24277.17640672  .00144102  00000+0  15249-2 0  9997
2 55562  37.1765 262.3245 0003217 214.1316 145.9243 15.62767946 93103
HORUS 1                 
1 55690U 23025A   24277.18508040  .00023300  00000+0  97718-3 0  9997
2 55690  97.4136 351.2440 0004328 151.3843 208.7632 15.23489405 89352
HORUS 2                 
1 55844U 23032A   24277.21809555  .00023760  00000+0  98973-3 0  9999
2 55844  97.4195 351.5620 0006806  91.8681 268.3336 15.23702754 86795
GLOBAL-19               
1 55982U 23041B   24276.88234719  .00060081  00000+0  15480-2 0  9996
2 55982  42.0094 232.6170 0001742 269.3983  90.6657 15.38343690 86071
DEWASAT-2               
1 56180U 23054C   24277.16164789  .00080424  00000+0  10228-2 0  9990
2 56180  97.3511 178.0689 0006070 116.3238 243.8643 15.59088861 82904
KILICSAT                
1 56181U 23054D   24277.21565283  .00106158  00000+0  17665-2 0  9996
2 56181  97.3422 175.6599 0008464 117.0102 243.2016 15.51627106 82783
SSS-2B                  
1 56184U 23054G   24277.23026732  .00145030  00000+0  19945-2 0  9997
2 56184  97.3492 177.0194 0009131 114.8669 245.3536 15.56738376 82849
BRO-9                   
1 56185U 23054H   24277.19162581  .00029752  00000+0  89383-3 0  9992
2 56185  97.3459 171.6217 0008377 132.8288 227.3661 15.34339220 82522
CIRBE                   
1 56188U 23054L   24275.28943121  .02274278  59524-2  22628-2 0  9993
2 56188  97.3265 180.2369 0010226 165.1355 195.0233 16.12645334 82916
ION SCV-010             
1 56192U 23054Q   24276.22944772  .00014800  00000+0  74206-3 0  9999
2 56192  97.4517 163.1390 0016319 216.8000 143.2115 15.17325063 81423
GHOST-1                 
1 56195U 23054T   24276.62912760  .00035270  00000+0  10139-2 0  9996
2 56195  97.3474 171.6113 0009832 126.5102 233.7049 15.35679725 82469
GHOST-2                 
1 56197U 23054V   24276.79476775  .00048381  00000+0  12630-2 0  9992
2 56197  97.3466 172.7102 0010242 123.7037 236.5186 15.38599556 82554
TOMORROW-R1             
1 56199U 23054X   24276.79225785  .00080834  00000+0  17078-2 0  9997
2 56199  97.3497 174.5468 0009036 119.4957 240.7194 15.44843481 82661
FACSAT-2                
1 56205U 23054AD  24277.19250665  .00041263  00000+0  98970-3 0  9999
2 56205  97.3518 174.9315 0012849 113.9981 246.2612 15.41189527 82713
CONNECTA T2.1           
1 56210U 23054AJ  24277.18945243  .00044424  00000+0  10791-2 0  9993
2 56210  97.3438 173.7843 0011402 111.6669 248.5793 15.40808184 82671
LS3C                    
1 56214U 23054AN  24276.72430905  .00446641  00000+0  22106-2 0  9990
2 56214  97.3399 180.8420 0010363 104.2843 255.9577 15.80809887 83081
IRIS-C                  
1 56221U 23054AV  24276.70446996  .00577999  00000+0  25503-2 0  9998
2 56221  97.3402 179.5149 0010279 108.5848 251.6539 15.82984163 82987
DISCO-1                 
1 56222U 23054AW  24276.67442431  .00123744  00000+0  19974-2 0  9995
2 56222  97.3419 175.3359 0010458 112.3567 247.8795 15.52394843 82712
REVELA                  
1 56224U 23054AY  24277.18848651  .00132514  00000+0  18214-2 0  9999
2 56224  97.3439 177.3426 0008819 101.3525 258.8721 15.56799197 82887
TELEOS-2                
1 56310U 23057C   24276.58101247 -.00040133  00000+0 -35330-2 0  9999
2 56310   9.9804  57.5181 0002144 128.5417 309.8139 14.96331049 79383
SNIPE 4                 
1 56744U 23072B   24277.17722555  .00024412  00000+0  12218-2 0  9994
2 56744  97.5485 103.1524 0011041  22.3263 337.8449 15.17346014 75021
SNIPE 2                 
1 56745U 23072C   24277.16454012  .00028094  00000+0  14033-2 0  9991
2 56745  97.5623 103.7587 0007941  37.6683 322.5105 15.17410610 75035
2023-072G               
1 56749U 23072G   24277.17216735  .00028294  00000+0  13296-2 0  9996
2 56749  97.5281 102.8322 0008470  46.7330 313.4610 15.19530825 75082
OTTER PUP               
1 56933U 23084B   24276.75236406  .00044737  00000+0  16086-2 0  9994
2 56933  97.5483  36.7247 0005711 334.5642  25.5316 15.28470801 72562
GEISAT PRECURSOR        
1 56934U 23084C   24277.17553491  .00016279  00000+0  71293-3 0  9990
2 56934  97.5536  35.4042 0007637  26.5425 333.6201 15.22079684 72493
EIVE                    
1 56937U 23084F   24277.18796588  .00076307  00000+0  21744-2 0  9993
2 56937  97.5465  38.1855 0003878 353.6517   6.4676 15.35789139 72698
LAYAN-23                
1 56939U 23084H   24277.14177820  .00122233  00000+0  32734-2 0  9994
2 56939  97.5462  38.8721 0004140 344.7027  15.4092 15.37525373 72733
AFRL-XVI                
1 56942U 23084L   24276.91211538  .00064497  00000+0  18909-2 0  9992
2 56942  97.5515  38.6470 0005355   3.9990 356.1294 15.34942967 72689
BLACKJACK ACES-3        
1 56950U 23084U   24276.91363664  .00039341  00000+0  15921-2 0  9990
2 56950  97.5540  36.6572 0008290 355.4585   4.6575 15.24557035 72553
QPS-SAR-6 (AMATERU-III) 
1 56951U 23084V   24277.17044861  .00272424  00000+0  35105-2 0  9992
2 56951  97.5418  42.4083 0007585 285.8561  74.1858 15.58071321 72963
BLACKJACK ACES-4        
1 56952U 23084W   24276.91865923  .00054470  00000+0  19169-2 0  9995
2 56952  97.5524  37.0478 0007927 352.1311   7.9803 15.29109550 72587
BLACKJACK ACES-2        
1 56955U 23084Z   24277.22640978  .00039945  00000+0  16022-2 0  9999
2 56955  97.5531  36.9571 0008226 357.4092   2.7102 15.24853596 72606
